{"type": "FeatureCollection", "features": [ {"type": "Feature", "properties": {"norad_id": 66605, "name": "STARLINK-36052", "group": "last-30-days", "lat": 15.693656847398664, "lon": -67.27492960275227, "alt_km": 442.34597230154486, "timestamp": "2025-12-23T11:34:46.945054+00:00", "meta": {"OBJECT_NAME": "STARLINK-36052", "OBJECT_ID": "2025-270T", "EPOCH": "2025-12-23T00:00:00.998784", "MEAN_MOTION": 15.40674446, "ECCENTRICITY": 0.0002162, "INCLINATION": 43.0003, "RA_OF_ASC_NODE": 133.0544, "ARG_OF_PERICENTER": 274.9545, "MEAN_ANOMALY": 82.3971, "EPHEMERIS_TYPE": 0, "CLASSIFICATION_TYPE": "U", "NORAD_CAT_ID": 66605, "ELEMENT_SET_NO": 999, "REV_AT_EPOCH": 604, "BSTAR": 0.00049411, "MEAN_MOTION_DOT": 0.00020375, "MEAN_MOTION_DDOT": 0}, "tle": {"line1": "1 66605U 25270T   25357.00001156  .00020375  00000+0  49411-3 0  9992", "line2": "2 66605  43.0003 133.0544 0002162 274.9545  82.3971 15.40674446  6043"}}, "geometry": {"type": "Point", "coordinates": [-67.27492960275227, 15.693656847398664]}}, {"type": "Feature", "properties": {"norad_id": 66606, "name": "STARLINK-36063", "group": "last-30-days", "lat": -37.65807897585091, "lon": 5.968826411914974, "alt_km": 446.19842844685263, "timestamp": "2025-12-23T11:34:46.945063+00:00", "meta": {"OBJECT_NAME": "STARLINK-36063", "OBJECT_ID": "2025-270U", "EPOCH": "2025-12-23T04:00:01.998720", "MEAN_MOTION": 15.40684101, "ECCENTRICITY": 0.0001543, "INCLINATION": 43.0007, "RA_OF_ASC_NODE": 131.8814, "ARG_OF_PERICENTER": 263.5296, "MEAN_ANOMALY": 26.4389, "EPHEMERIS_TYPE": 0, "CLASSIFICATION_TYPE": "U", "NORAD_CAT_ID": 66606, "ELEMENT_SET_NO": 999, "REV_AT_EPOCH": 607, "BSTAR": 0.0007164, "MEAN_MOTION_DOT": 0.00029723, "MEAN_MOTION_DDOT": 0}, "tle": {"line1": "1 66606U 25270U   25357.16668980  .00029723  00000+0  71640-3 0  9999", "line2": "2 66606  43.0007 131.8814 0001543 263.5296  26.4389 15.40684101  6077"}}, "geometry": {"type": "Point", "coordinates": [5.968826411914974, -37.65807897585091]}}, {"type": "Feature", "properties": {"norad_id": 66607, "name": "STARLINK-35993", "group": "last-30-days", "lat": 7.429251962447128, "lon": -57.80016521455052, "alt_km": 443.0479875349147, "timestamp": "2025-12-23T11:34:46.945072+00:00", "meta": {"OBJECT_NAME": "STARLINK-35993", "OBJECT_ID": "2025-270V", "EPOCH": "2025-12-23T00:00:00.998784", "MEAN_MOTION": 15.40678523, "ECCENTRICITY": 0.0001899, "INCLINATION": 43.0003, "RA_OF_ASC_NODE": 133.0246, "ARG_OF_PERICENTER": 266.823, "MEAN_ANOMALY": 102.9584, "EPHEMERIS_TYPE": 0, "CLASSIFICATION_TYPE": "U", "NORAD_CAT_ID": 66607, "ELEMENT_SET_NO": 999, "REV_AT_EPOCH": 595, "BSTAR": 0.00049027, "MEAN_MOTION_DOT": 0.00020216, "MEAN_MOTION_DDOT": 0}, "tle": {"line1": "1 66607U 25270V   25357.00001156  .00020216  00000+0  49027-3 0  9991", "line2": "2 66607  43.0003 133.0246 0001899 266.8230 102.9584 15.40678523  5959"}}, "geometry": {"type": "Point", "coordinates": [-57.80016521455052, 7.429251962447128]}}, {"type": "Feature", "properties": {"norad_id": 66608, "name": "STARLINK-36036", "group": "last-30-days", "lat": -41.42928008463873, "lon": 21.301500175833937, "alt_km": 446.4136218906042, "timestamp": "2025-12-23T11:34:46.945083+00:00", "meta": {"OBJECT_NAME": "STARLINK-36036", "OBJECT_ID": "2025-270W", "EPOCH": "2025-12-23T04:00:01.998720", "MEAN_MOTION": 15.40678413, "ECCENTRICITY": 0.000135, "INCLINATION": 43.0007, "RA_OF_ASC_NODE": 131.8516, "ARG_OF_PERICENTER": 242.8833, "MEAN_ANOMALY": 59.5042, "EPHEMERIS_TYPE": 0, "CLASSIFICATION_TYPE": "U", "NORAD_CAT_ID": 66608, "ELEMENT_SET_NO": 999, "REV_AT_EPOCH": 591, "BSTAR": 0.0013006, "MEAN_MOTION_DOT": 0.00054376, "MEAN_MOTION_DDOT": 0}, "tle": {"line1": "1 66608U 25270W   25357.16668980  .00054376  00000+0  13006-2 0  9994", "line2": "2 66608  43.0007 131.8516 0001350 242.8833  59.5042 15.40678413  5915"}}, "geometry": {"type": "Point", "coordinates": [21.301500175833937, -41.42928008463873]}}, {"type": "Feature", "properties": {"norad_id": 66609, "name": "STARLINK-36034", "group": "last-30-days", "lat": -42.01474506541789, "lon": 54.79092780101277, "alt_km": 446.166252905874, "timestamp": "2025-12-23T11:34:46.945092+00:00", "meta": {"OBJECT_NAME": "STARLINK-36034", "OBJECT_ID": "2025-270X", "EPOCH": "2025-12-23T04:00:01.998720", "MEAN_MOTION": 15.40668483, "ECCENTRICITY": 0.0001821, "INCLINATION": 43.0006, "RA_OF_ASC_NODE": 131.7902, "ARG_OF_PERICENTER": 279.9821, "MEAN_ANOMALY": 47.3538, "EPHEMERIS_TYPE": 0, "CLASSIFICATION_TYPE": "U", "NORAD_CAT_ID": 66609, "ELEMENT_SET_NO": 999, "REV_AT_EPOCH": 591, "BSTAR": 0.00082402, "MEAN_MOTION_DOT": 0.00034237, "MEAN_MOTION_DDOT": 0}, "tle": {"line1": "1 66609U 25270X   25357.16668980  .00034237  00000+0  82402-3 0  9996", "line2": "2 66609  43.0006 131.7902 0001821 279.9821  47.3538 15.40668483  5915"}}, "geometry": {"type": "Point", "coordinates": [54.79092780101277, -42.01474506541789]}}, {"type": "Feature", "properties": {"norad_id": 66610, "name": "STARLINK-35680", "group": "last-30-days", "lat": -9.456775661985182, "lon": -39.52178136567998, "alt_km": 444.9186344653035, "timestamp": "2025-12-23T11:34:46.945102+00:00", "meta": {"OBJECT_NAME": "STARLINK-35680", "OBJECT_ID": "2025-270Y", "EPOCH": "2025-12-23T04:00:01.998720", "MEAN_MOTION": 15.40674986, "ECCENTRICITY": 0.0001952, "INCLINATION": 43.0004, "RA_OF_ASC_NODE": 132.0017, "ARG_OF_PERICENTER": 279.1086, "MEAN_ANOMALY": 321.1326, "EPHEMERIS_TYPE": 0, "CLASSIFICATION_TYPE": "U", "NORAD_CAT_ID": 66610, "ELEMENT_SET_NO": 999, "REV_AT_EPOCH": 602, "BSTAR": 0.00063523, "MEAN_MOTION_DOT": 0.00026301, "MEAN_MOTION_DDOT": 0}, "tle": {"line1": "1 66610U 25270Y   25357.16668980  .00026301  00000+0  63523-3 0  9994", "line2": "2 66610  43.0004 132.0017 0001952 279.1086 321.1326 15.40674986  6022"}}, "geometry": {"type": "Point", "coordinates": [-39.52178136567998, -9.456775661985182]}}, {"type": "Feature", "properties": {"norad_id": 66611, "name": "STARLINK-35583", "group": "last-30-days", "lat": -25.305788091109974, "lon": -19.38855387587964, "alt_km": 445.8267824331633, "timestamp": "2025-12-23T11:34:46.945111+00:00", "meta": {"OBJECT_NAME": "STARLINK-35583", "OBJECT_ID": "2025-270Z", "EPOCH": "2025-12-23T04:00:01.998720", "MEAN_MOTION": 15.40671287, "ECCENTRICITY": 0.0001653, "INCLINATION": 43.0005, "RA_OF_ASC_NODE": 131.9415, "ARG_OF_PERICENTER": 272.6913, "MEAN_ANOMALY": 352.4446, "EPHEMERIS_TYPE": 0, "CLASSIFICATION_TYPE": "U", "NORAD_CAT_ID": 66611, "ELEMENT_SET_NO": 999, "REV_AT_EPOCH": 602, "BSTAR": 0.00066047, "MEAN_MOTION_DOT": 0.00027359, "MEAN_MOTION_DDOT": 0}, "tle": {"line1": "1 66611U 25270Z   25357.16668980  .00027359  00000+0  66047-3 0  9993", "line2": "2 66611  43.0005 131.9415 0001653 272.6913 352.4446 15.40671287  6020"}}, "geometry": {"type": "Point", "coordinates": [-19.38855387587964, -25.305788091109974]}}, {"type": "Feature", "properties": {"norad_id": 66612, "name": "STARLINK-36039", "group": "last-30-days", "lat": -19.892639650746176, "lon": 107.87358597633086, "alt_km": 445.06686019388144, "timestamp": "2025-12-23T11:34:46.945120+00:00", "meta": {"OBJECT_NAME": "STARLINK-36039", "OBJECT_ID": "2025-270AA", "EPOCH": "2025-12-22T10:48:54.923616", "MEAN_MOTION": 15.40715272, "ECCENTRICITY": 0.0001747, "INCLINATION": 43.0017, "RA_OF_ASC_NODE": 136.6692, "ARG_OF_PERICENTER": 279.3644, "MEAN_ANOMALY": 80.7015, "EPHEMERIS_TYPE": 0, "CLASSIFICATION_TYPE": "U", "NORAD_CAT_ID": 66612, "ELEMENT_SET_NO": 999, "REV_AT_EPOCH": 584, "BSTAR": 7.3191e-05, "MEAN_MOTION_DOT": 2.756e-05, "MEAN_MOTION_DDOT": 0}, "tle": {"line1": "1 66612U 25270AA  25356.45063569  .00002756  00000+0  73191-4 0  9990", "line2": "2 66612  43.0017 136.6692 0001747 279.3644  80.7015 15.40715272  5847"}}, "geometry": {"type": "Point", "coordinates": [107.87358597633086, -19.892639650746176]}}, {"type": "Feature", "properties": {"norad_id": 66613, "name": "STARLINK-36037", "group": "last-30-days", "lat": -3.5390881525075546, "lon": 126.85909354045555, "alt_km": 444.0195712961422, "timestamp": "2025-12-23T11:34:46.945129+00:00", "meta": {"OBJECT_NAME": "STARLINK-36037", "OBJECT_ID": "2025-270AB", "EPOCH": "2025-12-23T02:16:00.969024", "MEAN_MOTION": 15.40696347, "ECCENTRICITY": 0.0001065, "INCLINATION": 42.9999, "RA_OF_ASC_NODE": 132.9013, "ARG_OF_PERICENTER": 274.395, "MEAN_ANOMALY": 85.6785, "EPHEMERIS_TYPE": 0, "CLASSIFICATION_TYPE": "U", "NORAD_CAT_ID": 66613, "ELEMENT_SET_NO": 999, "REV_AT_EPOCH": 594, "BSTAR": 0.0010983, "MEAN_MOTION_DOT": 0.00045847, "MEAN_MOTION_DDOT": 0}, "tle": {"line1": "1 66613U 25270AB  25357.09445566  .00045847  00000+0  10983-2 0  9999", "line2": "2 66613  42.9999 132.9013 0001065 274.3950  85.6785 15.40696347  5949"}}, "geometry": {"type": "Point", "coordinates": [126.85909354045555, -3.5390881525075546]}}, {"type": "Feature", "properties": {"norad_id": 66614, "name": "STARLINK-36040", "group": "last-30-days", "lat": 40.70534652323861, "lon": -116.99116265822278, "alt_km": 438.56662350846, "timestamp": "2025-12-23T11:34:46.945139+00:00", "meta": {"OBJECT_NAME": "STARLINK-36040", "OBJECT_ID": "2025-270AC", "EPOCH": "2025-12-22T19:33:33.532416", "MEAN_MOTION": 15.40700005, "ECCENTRICITY": 0.00017915, "INCLINATION": 43.0038, "RA_OF_ASC_NODE": 134.2382, "ARG_OF_PERICENTER": 268.7631, "MEAN_ANOMALY": 91.302, "EPHEMERIS_TYPE": 0, "CLASSIFICATION_TYPE": "U", "NORAD_CAT_ID": 66614, "ELEMENT_SET_NO": 999, "REV_AT_EPOCH": 574, "BSTAR": 0.0011223894, "MEAN_MOTION_DOT": 0.0004687, "MEAN_MOTION_DDOT": 0}, "tle": {"line1": "1 66614U 25270AC  25356.81497144  .00046870  00000+0  11224-2 0  9994", "line2": "2 66614  43.0038 134.2382 0001791 268.7631  91.3020 15.40700005  5740"}}, "geometry": {"type": "Point", "coordinates": [-116.99116265822278, 40.70534652323861]}}]}